[{"OBJECT_NAME":"NOAA 17","OBJECT_ID":"2002-032A","EPOCH":"2026-03-28T21:33:59.386464","MEAN_MOTION":14.26200051,"ECCENTRICITY":0.00108364,"INCLINATION":98.8574,"RA_OF_ASC_NODE":52.7356,"ARG_OF_PERICENTER":220.7073,"MEAN_ANOMALY":139.3297,"EPHEMERIS_TYPE":0,"CLASSIFICATION_TYPE":"U","NORAD_CAT_ID":27453,"ELEMENT_SET_NO":999,"REV_AT_EPOCH":23554,"BSTAR":0.0001212374,"MEAN_MOTION_DOT":2.45e-6,"MEAN_MOTION_DDOT":0},{"OBJECT_NAME":"NOAA 18","OBJECT_ID":"2005-018A","EPOCH":"2026-03-28T20:43:20.407296","MEAN_MOTION":14.13714606,"ECCENTRICITY":0.0014568,"INCLINATION":98.8131,"RA_OF_ASC_NODE":168.6998,"ARG_OF_PERICENTER":23.7418,"MEAN_ANOMALY":336.4424,"EPHEMERIS_TYPE":0,"CLASSIFICATION_TYPE":"U","NORAD_CAT_ID":28654,"ELEMENT_SET_NO":999,"REV_AT_EPOCH":7496,"BSTAR":4.8505198e-5,"MEAN_MOTION_DOT":4.8e-7,"MEAN_MOTION_DDOT":0},{"OBJECT_NAME":"NOAA 19","OBJECT_ID":"2009-005A","EPOCH":"2026-03-28T22:03:05.746464","MEAN_MOTION":14.13460436,"ECCENTRICITY":0.00127357,"INCLINATION":98.9571,"RA_OF_ASC_NODE":158.7189,"ARG_OF_PERICENTER":255.9475,"MEAN_ANOMALY":104.0282,"EPHEMERIS_TYPE":0,"CLASSIFICATION_TYPE":"U","NORAD_CAT_ID":33591,"ELEMENT_SET_NO":999,"REV_AT_EPOCH":88314,"BSTAR":4.1907214e-5,"MEAN_MOTION_DOT":3.4e-7,"MEAN_MOTION_DDOT":0},{"OBJECT_NAME":"SUOMI NPP","OBJECT_ID":"2011-061A","EPOCH":"2026-03-28T21:58:12.639648","MEAN_MOTION":14.19498498,"ECCENTRICITY":0.00016754,"INCLINATION":98.7893,"RA_OF_ASC_NODE":29.3674,"ARG_OF_PERICENTER":159.0398,"MEAN_ANOMALY":201.0847,"EPHEMERIS_TYPE":0,"CLASSIFICATION_TYPE":"U","NORAD_CAT_ID":37849,"ELEMENT_SET_NO":999,"REV_AT_EPOCH":74705,"BSTAR":5.6696951e-5,"MEAN_MOTION_DOT":7.5e-7,"MEAN_MOTION_DDOT":0},{"OBJECT_NAME":"NOAA 20 (JPSS-1)","OBJECT_ID":"2017-073A","EPOCH":"2026-03-28T20:37:28.840512","MEAN_MOTION":14.19540995,"ECCENTRICITY":0.00018838,"INCLINATION":98.7713,"RA_OF_ASC_NODE":28.0585,"ARG_OF_PERICENTER":111.8045,"MEAN_ANOMALY":248.3331,"EPHEMERIS_TYPE":0,"CLASSIFICATION_TYPE":"U","NORAD_CAT_ID":43013,"ELEMENT_SET_NO":999,"REV_AT_EPOCH":43307,"BSTAR":6.2436237e-5,"MEAN_MOTION_DOT":8.8e-7,"MEAN_MOTION_DDOT":0},{"OBJECT_NAME":"NOAA 21 (JPSS-2)","OBJECT_ID":"2022-150A","EPOCH":"2026-03-28T21:27:08.967456","MEAN_MOTION":14.19557101,"ECCENTRICITY":0.00027516,"INCLINATION":98.7576,"RA_OF_ASC_NODE":27.9422,"ARG_OF_PERICENTER":73.0528,"MEAN_ANOMALY":287.095,"EPHEMERIS_TYPE":0,"CLASSIFICATION_TYPE":"U","NORAD_CAT_ID":54234,"ELEMENT_SET_NO":999,"REV_AT_EPOCH":17515,"BSTAR":5.5883148e-5,"MEAN_MOTION_DOT":7.4e-7,"MEAN_MOTION_DDOT":0}]
